NOAA 1 [-]              
1 04793U 70106A   22329.80725649 -.00000021  00000+0  14145-3 0  9997
2 04793 101.5367  29.4263 0031468   8.7649 106.3893 12.54009300377810
NOAA 2 (ITOS-D) [-]     
1 06235U 72082A   22330.45656458 -.00000043  00000+0  20847-4 0  9990
2 06235 101.9728 313.8062 0004119 122.3271   0.5198 12.53154191292493
NOAA 3 [-]              
1 06920U 73086A   22329.85787595 -.00000044  00000+0  12964-4 0  9997
2 06920 102.2273 311.9784 0006734 354.5207  63.8950 12.40350553220806
NOAA 4 [-]              
1 07529U 74089A   22330.44196372 -.00000035  00000+0  68490-4 0  9996
2 07529 101.9345 310.6679 0008919 152.7780   2.0348 12.53162805197082
NOAA 5 [-]              
1 09057U 76077A   22329.80231398 -.00000043  00000+0  17318-4 0  9991
2 09057 102.1238 296.1980 0009441 201.6193 222.4806 12.37776693 93709
TIROS N [-]             
1 11060U 78096A   22330.16830954  .00000123  00000+0  80062-4 0  9999
2 11060  98.6146  19.4598 0011176  42.7706 317.4337 14.18442069494770
NOAA 6 [-]              
1 11416U 79057A   22330.02431664  .00000199  00000+0  87334-4 0  9994
2 11416  98.6612 341.1233 0011057 137.6796 222.5244 14.33842309264883
NOAA 7 [-]              
1 12553U 81059A   22330.17295684  .00000062  00000+0  53211-4 0  9994
2 12553  98.9784  16.4332 0011763  20.8492 339.3160 14.17357769140926
NOAA 8 [-]              
1 13923U 83022A   22329.90901883  .00000092  00000+0  54065-4 0  9993
2 13923  98.7000 319.9330 0016137  96.7761 263.5257 14.28858922 65466
NOAA 9 [-]              
1 15427U 84123A   22329.81552858  .00000073  00000+0  60157-4 0  9999
2 15427  99.0670 304.8965 0015782  69.2978 354.1873 14.16248389959450
NOAA 10 [-]             
1 16969U 86073A   22330.43480578  .00000075  00000+0  47467-4 0  9997
2 16969  98.5849 313.7397 0011833 193.2208 282.9608 14.28247649884215
NOAA 11 [-]             
1 19531U 88089A   22329.81058193  .00000017  00000+0  29626-4 0  9991
2 19531  98.4417 310.1579 0012282  75.1926 285.0609 14.15336055763644
NOAA 12 [-]             
1 21263U 91032A   22330.50491522  .00000051  00000+0  39098-4 0  9995
2 21263  98.5223 325.8509 0012831 221.7804 138.2397 14.26030817640089
NOAA 13 [-]             
1 22739U 93050A   22330.40770230  .00000054  00000+0  51057-4 0  9993
2 22739  98.5262 302.2910 0008517 236.9479 123.0876 14.12884363510165
NOAA 14 [-]             
1 23455U 94089A   22330.50361998  .00000023  00000+0  33579-4 0  9995
2 23455  98.4370 348.3651 0008840 212.8095 147.2531 14.14221302439851
NOAA 15 [B]             
1 25338U 98030A   22330.41417327  .00000121  00000+0  68674-4 0  9998
2 25338  98.6290 357.7200 0010393 179.7420 180.3767 14.26200388276356
NOAA 16 [-]             
1 26536U 00055A   22330.44462325  .00000069  00000+0  59084-4 0  9996
2 26536  98.6157  23.5914 0011478  66.1748 294.0627 14.13361259143730
NOAA 17 [-]             
1 27453U 02032A   22329.84147957  .00000121  00000+0  70033-4 0  9991
2 27453  98.6911 273.3445 0012118 157.7044 202.4665 14.25169627 61843
NOAA 18 [B]             
1 28654U 05018A   22330.45954180  .00000180  00000+0  12066-3 0  9991
2 28654  98.9338  40.6416 0013617 230.9259 129.0702 14.12812416902941
NOAA 19 [+]             
1 33591U 09005A   22330.47942167  .00000169  00000+0  11594-3 0  9993
2 33591  99.1298   7.8845 0014843  93.2617 267.0252 14.12642837711327
SUOMI NPP [+]           
1 37849U 11061A   22330.40292525  .00000068  00000+0  53145-4 0  9994
2 37849  98.7484 266.7997 0001073  90.3443  60.3147 14.19563445574169
NOAA 20 [+]             
1 43013U 17073A   22330.54897644  .00000057  00000+0  47859-4 0  9994
2 43013  98.7323 266.6562 0000829  54.8558 305.2696 14.19561676260221
